[c2022e3(ztf)]
absolute_magnitude             = 9
albedo                         = 0.1
discovery                      = 2022-03-02
dust_brightnessfactor          = 1.5
dust_lengthfactor              = 0.4
dust_widthfactor               = 1.5
iau_designation                = C/2022 E3
name                           = ZTF
orbit_ArgOfPericenter          = 145.8162
orbit_AscendingNode            = 302.556
orbit_Eccentricity             = 1.000267
orbit_Epoch                    = 2460126.5
orbit_Inclination              = 109.1685
orbit_PericenterDistance       = 1.112275
orbit_TimeAtPericenter         = 2459957.2821
orbit_good                     = 1000
radius                         = 5
ref                            = MPEC 2023-M14
slope_parameter                = 4
type                           = comet

[c2022f1(atlas)]
absolute_magnitude             = 7
albedo                         = 0.1
discovery                      = 2022-03-30
dust_brightnessfactor          = 1.5
dust_lengthfactor              = 0.4
dust_widthfactor               = 1.5
iau_designation                = C/2022 F1
name                           = ATLAS
orbit_ArgOfPericenter          = 278.2819
orbit_AscendingNode            = 350.6528
orbit_Eccentricity             = 0.999193
orbit_Epoch                    = 2460126.5
orbit_Inclination              = 57.974
orbit_PericenterDistance       = 5.974761
orbit_TimeAtPericenter         = 2459796.742
orbit_good                     = 1000
radius                         = 5
ref                            = MPEC 2022-WD2
slope_parameter                = 4
type                           = comet

[c2022f2(neowise)]
absolute_magnitude             = 14.5
albedo                         = 0.1
discoverer                     = J.M. Bauer
discovery                      = 2022-03-30
dust_brightnessfactor          = 1.5
dust_lengthfactor              = 0.4
dust_widthfactor               = 1.5
iau_designation                = C/2022 F2
name                           = NEOWISE
orbit_ArgOfPericenter          = 200.6232
orbit_AscendingNode            = 58.6967
orbit_Eccentricity             = 0.933426
orbit_Epoch                    = 2460126.5
orbit_Inclination              = 97.294
orbit_PericenterDistance       = 1.585232
orbit_TimeAtPericenter         = 2459661.8822
orbit_good                     = 1000
radius                         = 5
ref                            = MPEC 2022-QD9
slope_parameter                = 4
type                           = comet

[c2022h1(panstarrs)]
absolute_magnitude             = 6
albedo                         = 0.1
discovery                      = 2022-04-21
dust_brightnessfactor          = 1.5
dust_lengthfactor              = 0.4
dust_widthfactor               = 1.5
iau_designation                = C/2022 H1
name                           = PANSTARRS
orbit_ArgOfPericenter          = 246.159
orbit_AscendingNode            = 6.3462
orbit_Eccentricity             = 0.990039
orbit_Epoch                    = 2460126.5
orbit_Inclination              = 49.8395
orbit_PericenterDistance       = 7.696662
orbit_TimeAtPericenter         = 2460326.8074
orbit_good                     = 1000
radius                         = 5
ref                            = MPEC 2023-J95
slope_parameter                = 4
type                           = comet

[c2022j1(mauryattard)]
absolute_magnitude             = 14.9
albedo                         = 0.1
discoverer                     = G. Attard, A. Maury
discovery                      = 2022-05-05
dust_brightnessfactor          = 1.5
dust_lengthfactor              = 0.4
dust_widthfactor               = 1.5
iau_designation                = C/2022 J1
name                           = Maury-Attard
orbit_ArgOfPericenter          = 305.6674
orbit_AscendingNode            = 280.7373
orbit_Eccentricity             = 0.96631
orbit_Epoch                    = 2460126.5
orbit_Inclination              = 105.9411
orbit_PericenterDistance       = 1.604331
orbit_TimeAtPericenter         = 2459629.5411
orbit_good                     = 1000
radius                         = 5
ref                            = MPEC 2022-VC5
slope_parameter                = 4
type                           = comet

[c2022j2(bok)]
absolute_magnitude             = 9
albedo                         = 0.1
discovery                      = 2022-05-09
dust_brightnessfactor          = 1.5
dust_lengthfactor              = 0.4
dust_widthfactor               = 1.5
iau_designation                = C/2022 J2
name                           = Bok
orbit_ArgOfPericenter          = 133.1017
orbit_AscendingNode            = 252.5749
orbit_Eccentricity             = 0.980522
orbit_Epoch                    = 2460126.5
orbit_Inclination              = 149.1059
orbit_PericenterDistance       = 1.827766
orbit_TimeAtPericenter         = 2459879.6248
orbit_good                     = 1000
radius                         = 5
ref                            = MPEC 2023-M14
slope_parameter                = 4
type                           = comet

[c2022jk5(panstarrs)]
absolute_magnitude             = 12.4
albedo                         = 0.1
discovery                      = 2022-05-09
dust_brightnessfactor          = 1.5
dust_lengthfactor              = 0.4
dust_widthfactor               = 1.5
iau_designation                = C/2022 JK5
name                           = PANSTARRS
orbit_ArgOfPericenter          = 247.1622
orbit_AscendingNode            = 59.652
orbit_Eccentricity             = 0.937786
orbit_Epoch                    = 2460126.5
orbit_Inclination              = 16.8308
orbit_PericenterDistance       = 2.686956
orbit_TimeAtPericenter         = 2460063.3263
orbit_good                     = 1000
radius                         = 5
ref                            = MPEC 2023-M14
slope_parameter                = 4
type                           = comet

[c2022k1(leonard)]
absolute_magnitude             = 11
albedo                         = 0.1
discoverer                     = G.J. Leonard
discovery                      = 2022-05-30
dust_brightnessfactor          = 1.5
dust_lengthfactor              = 0.4
dust_widthfactor               = 1.5
iau_designation                = C/2022 K1
name                           = Leonard
orbit_ArgOfPericenter          = 142.6918
orbit_AscendingNode            = 136.2871
orbit_Eccentricity             = 1.002599
orbit_Epoch                    = 2460126.5
orbit_Inclination              = 41.9636
orbit_PericenterDistance       = 3.988565
orbit_TimeAtPericenter         = 2459566.0044
orbit_good                     = 1000
radius                         = 5
ref                            = MPEC 2022-ST7
slope_parameter                = 4
type                           = comet

